start=new Date('2022-02-11T00:00:00.000Z').valueOf();
sats=[{"ECCENTRICITY":"0.00017710","RCS_SIZE":"LARGE","PERIAPSIS":"504.536","MEAN_MOTION_DDOT":"0.0000000000000","MEAN_MOTION":"15.20029093","CENTER_NAME":"EARTH","APOAPSIS":"506.974","BSTAR":"-0.03255200000000","LAUNCH_DATE":"2021-11-13","EPOCH":"2022-02-10T22:00:00.999936","TLE_LINE2":"2 49453  53.2173  58.2710 0001771  43.1377 135.7321 15.20029093  3637","REF_FRAME":"TEME","SITE":"AFETR","MEAN_ANOMALY":"135.7321","OBJECT_TYPE":"PAYLOAD","GP_ID":"195716085","ARG_OF_PERICENTER":"43.1377","OBJECT_NAME":"STARLINK-3129","DECAY_DATE":null,"EPHEMERIS_TYPE":"0","INCLINATION":"53.2173","TIME_SYSTEM":"UTC","FILE":"3297147","OBJECT_ID":"2021-104AX","CLASSIFICATION_TYPE":"U","MEAN_ELEMENT_THEORY":"SGP4","SEMIMAJOR_AXIS":"6883.890","ELEMENT_SET_NO":"999","REV_AT_EPOCH":"363","COUNTRY_CODE":"US","TLE_LINE1":"1 49453U 21104AX  22041.91667824 -.00658804  00000-0 -32552-1 0  9996","MEAN_MOTION_DOT":"-0.00658804","NORAD_CAT_ID":"49453","PERIOD":"94.735","RA_OF_ASC_NODE":"58.2710"},{"MEAN_MOTION_DDOT":"0.0000000000000","RCS_SIZE":"LARGE","PERIAPSIS":"504.876","ECCENTRICITY":"0.00017570","APOAPSIS":"507.295","CENTER_NAME":"EARTH","MEAN_MOTION":"15.19919694","EPOCH":"2022-02-10T22:00:00.999936","LAUNCH_DATE":"2021-11-13","BSTAR":"-0.03266700000000","MEAN_ANOMALY":"118.7698","OBJECT_TYPE":"PAYLOAD","TLE_LINE2":"2 49454  53.2173  58.2717 0001757  43.2354 118.7698 15.19919694  3636","SITE":"AFETR","REF_FRAME":"TEME","EPHEMERIS_TYPE":"0","OBJECT_NAME":"STARLINK-3160","DECAY_DATE":null,"ARG_OF_PERICENTER":"43.2354","GP_ID":"195716837","MEAN_ELEMENT_THEORY":"SGP4","CLASSIFICATION_TYPE":"U","SEMIMAJOR_AXIS":"6884.220","ELEMENT_SET_NO":"999","OBJECT_ID":"2021-104AY","TIME_SYSTEM":"UTC","FILE":"3297147","INCLINATION":"53.2173","COUNTRY_CODE":"US","REV_AT_EPOCH":"363","RA_OF_ASC_NODE":"58.2717","NORAD_CAT_ID":"49454","PERIOD":"94.742","MEAN_MOTION_DOT":"-0.00666171","TLE_LINE1":"1 49454U 21104AY  22041.91667824 -.00666171  00000-0 -32667-1 0  9990"},{"OBJECT_NAME":"STARLINK-3145","DECAY_DATE":null,"EPHEMERIS_TYPE":"0","GP_ID":"195716587","ARG_OF_PERICENTER":"47.6266","OBJECT_ID":"2021-104AZ","ELEMENT_SET_NO":"999","SEMIMAJOR_AXIS":"6882.849","MEAN_ELEMENT_THEORY":"SGP4","CLASSIFICATION_TYPE":"U","INCLINATION":"53.2173","FILE":"3297147","TIME_SYSTEM":"UTC","REV_AT_EPOCH":"363","COUNTRY_CODE":"US","RA_OF_ASC_NODE":"58.2693","TLE_LINE1":"1 49455U 21104AZ  22041.91667824 -.00657703  00000-0 -32167-1 0  9997","MEAN_MOTION_DOT":"-0.00657703","PERIOD":"94.714","NORAD_CAT_ID":"49455","RCS_SIZE":"LARGE","PERIAPSIS":"503.553","MEAN_MOTION_DDOT":"0.0000000000000","ECCENTRICITY":"0.00016870","APOAPSIS":"505.875","MEAN_MOTION":"15.20373949","CENTER_NAME":"EARTH","EPOCH":"2022-02-10T22:00:00.999936","BSTAR":"-0.03216700000000","LAUNCH_DATE":"2021-11-13","SITE":"AFETR","REF_FRAME":"TEME","TLE_LINE2":"2 49455  53.2173  58.2693 0001687  47.6266 181.1494 15.20373949  3639","OBJECT_TYPE":"PAYLOAD","MEAN_ANOMALY":"181.1494"},{"REV_AT_EPOCH":"363","COUNTRY_CODE":"US","RA_OF_ASC_NODE":"58.2704","MEAN_MOTION_DOT":"-0.00658493","TLE_LINE1":"1 49456U 21104BA  22041.91667824 -.00658493  00000-0 -32426-1 0  9993","NORAD_CAT_ID":"49456","PERIOD":"94.728","OBJECT_NAME":"STARLINK-3124","DECAY_DATE":null,"EPHEMERIS_TYPE":"0","GP_ID":"195715336","ARG_OF_PERICENTER":"43.9831","OBJECT_ID":"2021-104BA","CLASSIFICATION_TYPE":"U","MEAN_ELEMENT_THEORY":"SGP4","ELEMENT_SET_NO":"999","SEMIMAJOR_AXIS":"6883.543","INCLINATION":"53.2173","TIME_SYSTEM":"UTC","FILE":"3297147","EPOCH":"2022-02-10T22:00:00.999936","BSTAR":"-0.03242600000000","LAUNCH_DATE":"2021-11-13","TLE_LINE2":"2 49456  53.2173  58.2704 0001773  43.9831 151.5562 15.20144082  3637","REF_FRAME":"TEME","SITE":"AFETR","MEAN_ANOMALY":"151.5562","OBJECT_TYPE":"PAYLOAD","PERIAPSIS":"504.187","RCS_SIZE":"LARGE","MEAN_MOTION_DDOT":"0.0000000000000","ECCENTRICITY":"0.00017730","APOAPSIS":"506.628","MEAN_MOTION":"15.20144082","CENTER_NAME":"EARTH"},{"ECCENTRICITY":"0.00017040","RCS_SIZE":"LARGE","PERIAPSIS":"503.195","MEAN_MOTION_DDOT":"0.0000000000000","MEAN_MOTION":"15.20488748","CENTER_NAME":"EARTH","APOAPSIS":"505.540","BSTAR":"-0.03202700000000","LAUNCH_DATE":"2021-11-13","EPOCH":"2022-02-10T22:00:00.999936","TLE_LINE2":"2 49457  53.2173  58.2686 0001704  45.9285 199.4148 15.20488748  3637","SITE":"AFETR","REF_FRAME":"TEME","MEAN_ANOMALY":"199.4148","OBJECT_TYPE":"PAYLOAD","GP_ID":"195715586","ARG_OF_PERICENTER":"45.9285","DECAY_DATE":null,"OBJECT_NAME":"STARLINK-3132","EPHEMERIS_TYPE":"0","INCLINATION":"53.2173","TIME_SYSTEM":"UTC","FILE":"3297147","OBJECT_ID":"2021-104BB","CLASSIFICATION_TYPE":"U","MEAN_ELEMENT_THEORY":"SGP4","ELEMENT_SET_NO":"999","SEMIMAJOR_AXIS":"6882.502","REV_AT_EPOCH":"363","COUNTRY_CODE":"US","TLE_LINE1":"1 49457U 21104BB  22041.91667824 -.00657100  00000-0 -32027-1 0  9995","MEAN_MOTION_DOT":"-0.00657100","NORAD_CAT_ID":"49457","PERIOD":"94.706","RA_OF_ASC_NODE":"58.2686"},{"CLASSIFICATION_TYPE":"U","MEAN_ELEMENT_THEORY":"SGP4","ELEMENT_SET_NO":"999","SEMIMAJOR_AXIS":"6882.847","OBJECT_ID":"2021-104BC","TIME_SYSTEM":"UTC","FILE":"3296949","INCLINATION":"53.2175","EPHEMERIS_TYPE":"0","OBJECT_NAME":"STARLINK-3156","DECAY_DATE":null,"ARG_OF_PERICENTER":"42.2184","GP_ID":"195687807","RA_OF_ASC_NODE":"58.6506","NORAD_CAT_ID":"49458","PERIOD":"94.713","MEAN_MOTION_DOT":"-0.00656289","TLE_LINE1":"1 49458U 21104BC  22041.83335648 -.00656289  00000-0 -32092-1 0  9992","COUNTRY_CODE":"US","REV_AT_EPOCH":"1524","APOAPSIS":"505.865","CENTER_NAME":"EARTH","MEAN_MOTION":"15.20374628","MEAN_MOTION_DDOT":"0.0000000000000","PERIAPSIS":"503.559","RCS_SIZE":"LARGE","ECCENTRICITY":"0.00016750","MEAN_ANOMALY":"73.6744","OBJECT_TYPE":"PAYLOAD","TLE_LINE2":"2 49458  53.2175  58.6506 0001675  42.2184  73.6744 15.20374628 15246","SITE":"AFETR","REF_FRAME":"TEME","EPOCH":"2022-02-10T20:00:01.999872","LAUNCH_DATE":"2021-11-13","BSTAR":"-0.03209200000000"},{"EPHEMERIS_TYPE":"0","OBJECT_NAME":"STARLINK-3141","DECAY_DATE":null,"ARG_OF_PERICENTER":"44.5315","GP_ID":"195717087","SEMIMAJOR_AXIS":"6882.156","ELEMENT_SET_NO":"999","MEAN_ELEMENT_THEORY":"SGP4","CLASSIFICATION_TYPE":"U","OBJECT_ID":"2021-104BD","FILE":"3297147","TIME_SYSTEM":"UTC","INCLINATION":"53.2174","COUNTRY_CODE":"US","REV_AT_EPOCH":"363","RA_OF_ASC_NODE":"58.2678","PERIOD":"94.699","NORAD_CAT_ID":"49459","MEAN_MOTION_DOT":"-0.00656370","TLE_LINE1":"1 49459U 21104BD  22041.91667824 -.00656370  00000-0 -31881-1 0  9992","MEAN_MOTION_DDOT":"0.0000000000000","PERIAPSIS":"502.843","RCS_SIZE":"LARGE","ECCENTRICITY":"0.00017120","APOAPSIS":"505.199","CENTER_NAME":"EARTH","MEAN_MOTION":"15.20603491","EPOCH":"2022-02-10T22:00:00.999936","LAUNCH_DATE":"2021-11-13","BSTAR":"-0.03188100000000","OBJECT_TYPE":"PAYLOAD","MEAN_ANOMALY":"217.3451","SITE":"AFETR","REF_FRAME":"TEME","TLE_LINE2":"2 49459  53.2174  58.2678 0001712  44.5315 217.3451 15.20603491  3630"},{"ECCENTRICITY":"0.00017550","PERIAPSIS":"509.036","RCS_SIZE":"LARGE","MEAN_MOTION_DDOT":"0.0000000000000","MEAN_MOTION":"15.18543007","CENTER_NAME":"EARTH","APOAPSIS":"511.454","BSTAR":"-0.03373700000000","LAUNCH_DATE":"2021-11-13","EPOCH":"2022-02-10T22:00:00.999936","SITE":"AFETR","REF_FRAME":"TEME","TLE_LINE2":"2 49460  53.2173  58.2652 0001755  37.4378 301.2998 15.18543007  3621","OBJECT_TYPE":"PAYLOAD","MEAN_ANOMALY":"301.2998","GP_ID":"195715836","ARG_OF_PERICENTER":"37.4378","DECAY_DATE":null,"OBJECT_NAME":"STARLINK-3140","EPHEMERIS_TYPE":"0","INCLINATION":"53.2173","FILE":"3297147","TIME_SYSTEM":"UTC","OBJECT_ID":"2021-104BE","ELEMENT_SET_NO":"999","SEMIMAJOR_AXIS":"6888.380","MEAN_ELEMENT_THEORY":"SGP4","CLASSIFICATION_TYPE":"U","REV_AT_EPOCH":"362","COUNTRY_CODE":"US","MEAN_MOTION_DOT":"-0.00661264","TLE_LINE1":"1 49460U 21104BE  22041.91667824 -.00661264  00000-0 -33737-1 0  9994","PERIOD":"94.828","NORAD_CAT_ID":"49460","RA_OF_ASC_NODE":"58.2652"},{"DECAY_DATE":null,"OBJECT_NAME":"STARLINK-3219","EPHEMERIS_TYPE":"0","GP_ID":"195717113","ARG_OF_PERICENTER":"99.0402","OBJECT_ID":"2021-115A","SEMIMAJOR_AXIS":"6877.924","ELEMENT_SET_NO":"999","CLASSIFICATION_TYPE":"U","MEAN_ELEMENT_THEORY":"SGP4","INCLINATION":"53.2215","FILE":"3297147","TIME_SYSTEM":"UTC","REV_AT_EPOCH":"1091","COUNTRY_CODE":"US","RA_OF_ASC_NODE":"348.7794","MEAN_MOTION_DOT":"-0.00184722","TLE_LINE1":"1 49724U 21115A   22041.84781440 -.00184722  00000-0 -81755-2 0  9995","PERIOD":"94.612","NORAD_CAT_ID":"49724","RCS_SIZE":"LARGE","PERIAPSIS":"498.687","MEAN_MOTION_DDOT":"0.0000000000000","ECCENTRICITY":"0.00016020","APOAPSIS":"500.890","MEAN_MOTION":"15.22007341","CENTER_NAME":"EARTH","EPOCH":"2022-02-10T20:20:51.164160","BSTAR":"-0.00817550000000","LAUNCH_DATE":"2021-12-02","REF_FRAME":"TEME","SITE":"AFETR","TLE_LINE2":"2 49724  53.2215 348.7794 0001602  99.0402 261.0777 15.22007341 10917","OBJECT_TYPE":"PAYLOAD","MEAN_ANOMALY":"261.0777"},{"ARG_OF_PERICENTER":"46.1454","GP_ID":"195715862","EPHEMERIS_TYPE":"0","OBJECT_NAME":"STARLINK-3218","DECAY_DATE":null,"TIME_SYSTEM":"UTC","FILE":"3297147","INCLINATION":"53.2177","CLASSIFICATION_TYPE":"U","MEAN_ELEMENT_THEORY":"SGP4","SEMIMAJOR_AXIS":"6875.184","ELEMENT_SET_NO":"999","OBJECT_ID":"2021-115B","COUNTRY_CODE":"US","REV_AT_EPOCH":"362","NORAD_CAT_ID":"49725","PERIOD":"94.555","TLE_LINE1":"1 49725U 21115B   22041.91667824 -.00658108  00000-0 -29857-1 0  9991","MEAN_MOTION_DOT":"-0.00658108","RA_OF_ASC_NODE":"348.4152","ECCENTRICITY":"0.00016500","MEAN_MOTION_DDOT":"0.0000000000000","RCS_SIZE":"LARGE","PERIAPSIS":"495.915","CENTER_NAME":"EARTH","MEAN_MOTION":"15.22917031","APOAPSIS":"498.184","LAUNCH_DATE":"2021-12-02","BSTAR":"-0.02985700000000","EPOCH":"2022-02-10T22:00:00.999936","MEAN_ANOMALY":"78.5859","OBJECT_TYPE":"PAYLOAD","TLE_LINE2":"2 49725  53.2177 348.4152 0001650  46.1454  78.5859 15.22917031  3621","SITE":"AFETR","REF_FRAME":"TEME"}];
